YAOGAN-35 01A           
1 49390U 21101A   26068.78009532  .00012075  00000+0  47335-3 0  9995
2 49390  34.9903 183.8731 0005688 189.0601 171.0012 15.24952145241689
STARLINK-30251          
1 57532U 23115M   26067.83471449  .00001905  00000+0  80691-4 0  9997
2 57532  43.0011   6.1686 0001006 298.1512  61.9237 15.26742221142226
